OBJECT_NAME,OBJECT_ID,EPOCH,MEAN_MOTION,ECCENTRICITY,INCLINATION,RA_OF_ASC_NODE,ARG_OF_PERICENTER,MEAN_ANOMALY,EPHEMERIS_TYPE,CLASSIFICATION_TYPE,NORAD_CAT_ID,ELEMENT_SET_NO,REV_AT_EPOCH,BSTAR,MEAN_MOTION_DOT,MEAN_MOTION_DDOT
BEIDOU-2 G8 (C01),2019-027A,2026-06-06T14:09:27.398016,1.00275213,.00106583,1.6309,74.4870,284.4752,252.9095,0,U,44231,999,2597,0,-.233E-5,0
COSMOS 2534 (758),2019-030A,2026-06-06T05:17:38.691744,2.13102519,.00131614,64.3678,192.9857,275.3054,90.5914,0,U,44299,999,5469,0,.75E-6,0
BEIDOU-3 IGSO-2 (C39),2019-035A,2026-06-06T13:55:17.483808,1.00270343,.00398392,55.2446,158.9549,216.2059,208.5586,0,U,44337,999,2556,0,-.62E-6,0
GPS BIII-2  (PRN 18),2019-056A,2026-06-06T04:10:38.785728,2.00569824,.00614516,55.6435,331.5809,197.4701,157.7136,0,U,44506,999,4984,0,-.63E-6,0
BEIDOU-3 M24 (C46),2019-061A,2026-06-04T08:32:01.071744,1.86229272,.00082925,54.3958,183.1608,359.5616,0.4973,0,U,44542,999,4555,0,.7E-6,0
BEIDOU-3 M23 (C45),2019-061B,2026-06-05T03:50:47.412672,1.86227560,.00055253,54.3945,183.1018,339.5866,111.6566,0,U,44543,999,4557,0,.75E-6,0
EUTELSAT 5 WEST B (EGNOS/PRN 121),2019-067A,2026-06-06T13:26:46.755168,1.00272089,.00032762,0.0640,342.2855,93.9283,15.4672,0,U,44624,999,2433,0,-.29E-6,0
BEIDOU-3 IGSO-3 (C40),2019-073A,2026-05-16T19:27:04.075776,1.00246251,.0042953,54.8566,281.2355,189.4588,170.3676,0,U,44709,999,2414,0,-.217E-5,0
BEIDOU-3 M22 (C44),2019-078A,2026-06-05T19:20:44.288160,1.86227665,.00066301,53.9467,300.2280,49.5810,310.4674,0,U,44793,999,4443,0,-.55E-6,0
BEIDOU-3 M21 (C43),2019-078B,2026-06-05T22:42:15.886944,1.86228151,.0004552,53.9198,300.1845,47.7436,312.2860,0,U,44794,999,4444,0,-.55E-6,0
COSMOS 2544 (759),2019-088A,2026-06-05T07:08:53.172960,2.13102169,.00136933,65.5596,74.1271,259.9573,99.9093,0,U,44850,999,5046,0,-.6E-7,0
BEIDOU-3 M19 (C41),2019-090A,2026-06-06T10:56:36.782592,1.86231867,.00181153,56.5493,63.1460,297.5322,241.6390,0,U,44864,999,4403,0,-.38E-6,0
BEIDOU-3 M20 (C42),2019-090B,2026-06-06T07:44:50.540352,1.86231730,.00161406,56.5509,63.1852,310.9731,228.5055,0,U,44865,999,4401,0,-.38E-6,0
BEIDOU-3 G2 (C60),2020-017A,2026-06-06T13:51:10.542240,1.00274245,.00026242,2.8425,47.1809,25.3665,110.2786,0,U,45344,999,2315,0,-.128E-5,0
COSMOS 2545 (760),2020-018A,2026-06-05T11:49:45.715872,2.13102783,.0007849,64.3625,312.8297,231.7893,128.1339,0,U,45358,999,4841,0,-.33E-6,0
BEIDOU-3 G3 (C61),2020-040A,2026-06-06T14:01:20.733600,1.00273350,.00030251,2.4209,67.4212,337.0579,171.4363,0,U,45807,999,2196,0,-.341E-5,0
GPS BIII-3  (PRN 23),2020-041A,2026-06-06T12:23:56.548608,2.00559086,.00634877,56.6625,29.3580,204.6420,336.7508,0,U,45854,999,4382,0,-.68E-6,0
GALAXY 30 (WAAS/PRN 135),2020-056C,2026-06-06T12:52:42.520800,1.00272592,.00023159,0.0173,344.6466,88.8814,249.5925,0,U,46114,999,2118,0,.5E-6,0
COSMOS 2547 (705K),2020-075A,2026-06-05T05:06:49.888224,2.13100365,.0009155,64.5987,192.8757,239.4130,120.5675,0,U,46805,999,4365,0,.69E-6,0
GPS BIII-4  (PRN 14),2020-078A,2026-06-05T19:17:06.647424,2.00564981,.0073048,53.9813,211.2406,206.8740,155.6187,0,U,46826,999,4128,0,.41E-6,0
GPS BIII-5  (PRN 11),2021-054A,2026-06-06T12:56:42.138240,2.00569869,.00250437,55.1798,332.8881,228.5974,131.3634,0,U,48859,999,3654,0,-.63E-6,0
QZS-1R (QZSS/PRN 196),2021-096A,2026-06-05T15:49:42.295584,1.00260126,.07541763,37.4382,79.7551,271.5566,274.8683,0,U,49336,999,1689,0,-.239E-5,0
GSAT0223 (GALILEO 27),2021-116A,2026-06-05T20:12:21.690144,1.70476196,.0001178,57.1638,341.9819,182.7956,174.1817,0,U,49809,999,2798,0,-.66E-6,0
GSAT0224 (GALILEO 28),2021-116B,2026-06-01T20:23:41.337600,1.70476406,.0000821,57.1667,342.0878,134.5472,44.9862,0,U,49810,999,2794,0,-.79E-6,0
COSMOS 2557 (706K),2022-075A,2026-06-04T21:47:47.138208,2.13102273,.00101568,64.3043,314.9179,276.0496,83.8276,0,U,52984,999,3045,0,-.37E-6,0
COSMOS 2559 (707K),2022-130A,2026-06-06T03:15:13.547808,2.13101704,.00123738,64.2805,314.9582,177.2217,182.7817,0,U,54031,999,2845,0,-.32E-6,0
COSMOS 2564 (761),2022-161A,2026-06-05T00:58:08.311008,2.13102077,.00120261,64.7406,193.1150,224.1220,135.8537,0,U,54377,999,2737,0,.69E-6,0
GPS BIII-6  (PRN 28),2023-009A,2026-06-05T17:46:00.319008,2.00572353,.00061842,55.1216,148.9690,317.6827,223.4166,0,U,55268,999,2501,0,.86E-6,0
BEIDOU-3 G4 (C62),2023-066A,2026-06-06T14:08:12.517728,1.00267734,.00044185,0.4994,328.6734,169.0695,109.3131,0,U,56564,999,1128,0,-.269E-5,0
NVS-01 (IRNSS-1J),2023-076A,2026-06-06T14:44:31.840224,1.00270810,.00029232,2.1918,244.8344,41.8681,319.0585,0,U,56759,999,1101,0,-.322E-5,0
COSMOS 2569 (703K),2023-114A,2026-06-05T01:15:55.217088,2.13103796,.00111286,65.2956,73.0297,296.7426,63.1656,0,U,57517,999,2200,0,-.9E-7,0
